{"fetched_at":"2026-03-29T16:36:15Z","count":15609,"tles":[{"name":"STARLINK-32659","line1":"1 62427U 24249U   26087.74015776  .00037610  00000+0  13665-2 0  9991","line2":"2 62427  42.9999 206.7913 0001145 268.2151  91.8569 15.27646185 70728","category":"Starlink"}]}